0 CBERS 1 DEB
1 34214U 99057RR  13283.16582951  .00011186  00000-0  26076-2 0  4869
2 34214 098.2237 263.0827 0015496 200.1895 159.8692 14.54865635313818
0 CBERS 1 DEB
1 34214U 99057RR  13285.77925977  .00009824  00000-0  22897-2 0  4882
2 34214 098.2231 265.6541 0015724 191.2340 168.8508 14.54909526314198
0 CBERS 1 DEB
1 34214U 99057RR  13287.77366516  .00013932  00000-0  32380-2 0  4896
2 34214 098.2229 267.6164 0015925 184.4292 175.6767 14.54946090314483
0 CBERS 1 DEB
1 34214U 99057RR  13289.76800619  .00015495  00000-0  35955-2 0  4903
2 34214 098.2230 269.5788 0016145 178.1366 181.9894 14.54994252314771
0 CBERS 1 DEB
1 34214U 99057RR  13290.73077083  .00015136  00000-0  35109-2 0  4917
2 34214 098.2235 270.5257 0016183 174.7072 185.4299 14.55015904314910
0 CBERS 1 DEB
1 34214U 99057RR  13291.76228782  .00012600  00000-0  29239-2 0  4926
2 34214 098.2235 271.5413 0016359 171.4418 188.7061 14.55038250315067
0 CBERS 1 DEB
1 34214U 99057RR  13293.13761971  .00011777  00000-0  27323-2 0  4938
2 34214 098.2241 272.8945 0016529 166.8584 193.3047 14.55067112315266
0 CBERS 1 DEB
1 34214U 99057RR  13294.16910042  .00013622  00000-0  31562-2 0  4949
2 34214 098.2248 273.9090 0016617 163.5338 196.6402 14.55087872315418
0 CBERS 1 DEB
1 34214U 99057RR  13295.20056595  .00015158  00000-0  35085-2 0  4950
2 34214 098.2251 274.9242 0016747 160.2580 199.9269 14.55109101315562
